[{"OBJECT_NAME":"ALTAIR (RS65S)","OBJECT_ID":"2024-199AW","EPOCH":"2026-03-09T21:31:54.569568","MEAN_MOTION":15.34998047,"ECCENTRICITY":0.00120363,"INCLINATION":97.3179,"RA_OF_ASC_NODE":298.9542,"ARG_OF_PERICENTER":307.5319,"MEAN_ANOMALY":52.483,"EPHEMERIS_TYPE":0,"CLASSIFICATION_TYPE":"U","NORAD_CAT_ID":61779,"ELEMENT_SET_NO":999,"REV_AT_EPOCH":12187,"BSTAR":0.00027541775,"MEAN_MOTION_DOT":9.293e-5,"MEAN_MOTION_DDOT":0},{"OBJECT_NAME":"STARLINK-35314","OBJECT_ID":"2025-221Q","EPOCH":"2026-03-09T10:37:26.158368","MEAN_MOTION":15.30193346,"ECCENTRICITY":0.00015346,"INCLINATION":53.1605,"RA_OF_ASC_NODE":89.6246,"ARG_OF_PERICENTER":78.9308,"MEAN_ANOMALY":281.1865,"EPHEMERIS_TYPE":0,"CLASSIFICATION_TYPE":"U","NORAD_CAT_ID":65837,"ELEMENT_SET_NO":999,"REV_AT_EPOCH":2469,"BSTAR":0.00058475315,"MEAN_MOTION_DOT":0.00016996,"MEAN_MOTION_DDOT":0}]
